     2.100          NAVIGATION                              RINEX VERSION / TYPE
fic2rin                                 04/19/2012 00:07:09 PGM / RUN BY / DATE
                                                            END OF HEADER
13 12  4 18  2  0  0.0  .212790910155D-03 -.227373675443D-11  .000000000000D+00
     .106000000000D+03 -.571875000000D+02  .404802575938D-08  .164959245926D+01
    -.302679836750D-05  .495319673792D-02  .493787229061D-05  .515368511009D+04
     .266400000000D+06  .689178705215D-07  .170743957995D+01 -.279396772385D-07
     .985851405971D+00  .296718750000D+03  .196546914099D+01 -.797604652007D-08
    -.246438836595D-09  .100000000000D+01  .168400000000D+04  .000000000000D+00
     .240000000000D+01  .000000000000D+00 -.111758708954D-07  .106000000000D+03
     .259206000000D+06  .400000000000D+01
14 12  4 18  2  0  0.0  .200417358428D-03  .102318153949D-11  .000000000000D+00
     .790000000000D+02 -.594375000000D+02  .430053627746D-08  .175718138840D+01
    -.300817191601D-05  .620624795556D-02  .462867319584D-05  .515357682419D+04
     .266400000000D+06 -.108033418655D-06  .168099776869D+01 -.119209289551D-06
     .978708390996D+00  .297906250000D+03 -.206163815125D+01 -.817926927082D-08
    -.221437795202D-09  .100000000000D+01  .168400000000D+04  .000000000000D+00
     .240000000000D+01  .000000000000D+00 -.884756445885D-08  .790000000000D+02
     .259206000000D+06  .400000000000D+01
15 12  4 18  2  0  0.0 -.913911499083D-04  .113686837722D-12  .000000000000D+00
     .810000000000D+02 -.509375000000D+02  .511699885783D-08  .127128635852D+01
    -.260584056377D-05  .437907490414D-02  .407733023167D-05  .515354106522D+04
     .266400000000D+06  .111758708954D-07  .159443267957D+01  .782310962677D-07
     .945579275447D+00  .291937500000D+03  .514485262148D-01 -.856535678149D-08
    -.286083345091D-09  .100000000000D+01  .168400000000D+04  .000000000000D+00
     .240000000000D+01  .000000000000D+00 -.102445483208D-07  .810000000000D+02
     .259206000000D+06  .400000000000D+01
16 12  4 18  2  0  0.0 -.231745187193D-03 -.136424205266D-11  .000000000000D+00
     .880000000000D+02  .508750000000D+02  .435482425305D-08  .309556395066D+01
     .267475843430D-05  .662202015519D-02  .705197453499D-05  .515365065956D+04
     .266400000000D+06 -.134110450745D-06 -.253114972164D+01 -.372529029846D-08
     .980225142997D+00  .254843750000D+03 -.465247067636D-01 -.786461330700D-08
     .449304429619D-09  .100000000000D+01  .168400000000D+04  .000000000000D+00
     .240000000000D+01  .000000000000D+00 -.977888703346D-08  .880000000000D+02
     .259206000000D+06  .400000000000D+01
17 12  4 18  2  0  0.0  .135054346174D-03 -.272848410532D-11  .000000000000D+00
     .840000000000D+02 -.511875000000D+02  .475091218028D-08  .211242694091D+01
    -.282377004623D-05  .732793705538D-02  .596605241299D-05  .515366408348D+04
     .266400000000D+06 -.137835741043D-06 -.149022716688D+01 -.113621354103D-06
     .962328043134D+00  .267093750000D+03 -.230567867958D+01 -.818212653270D-08
    -.407516974718D-09  .100000000000D+01  .168400000000D+04  .000000000000D+00
     .340000000000D+01  .000000000000D+00 -.107102096081D-07  .840000000000D+02
     .259206000000D+06  .400000000000D+01
18 12  4 18  2  0  0.0  .191505998373D-03  .181898940355D-11  .000000000000D+00
     .930000000000D+02  .828125000000D+02  .515771483953D-08 -.268735107624D+01
     .419840216637D-05  .131048627663D-01  .588782131672D-05  .515368600273D+04
     .266400000000D+06  .819563865662D-07  .578514354268D+00 -.152736902237D-06
     .930309555973D+00  .249125000000D+03 -.218650328711D+01 -.831748931396D-08
     .459304846176D-09  .100000000000D+01  .168400000000D+04  .000000000000D+00
     .240000000000D+01  .000000000000D+00 -.107102096081D-07  .930000000000D+02
     .259206000000D+06  .400000000000D+01
19 12  4 18  2  0  0.0 -.256633851677D-03 -.375166564481D-11  .000000000000D+00
     .105000000000D+03 -.533437500000D+02  .492163357722D-08  .127717467255D+01
    -.248290598392D-05  .812678888906D-02  .556372106075D-05  .515377284622D+04
     .266400000000D+06  .242143869400D-07 -.143705111874D+01  .819563865662D-07
     .959726707075D+00  .269750000000D+03  .148143699831D+00 -.836249118847D-08
    -.511092717635D-09  .100000000000D+01  .168400000000D+04  .000000000000D+00
     .240000000000D+01  .000000000000D+00 -.144354999065D-07  .105000000000D+03
     .259206000000D+06  .400000000000D+01
20 12  4 18  2  0  0.0  .632191076875D-04  .000000000000D+00  .000000000000D+00
     .450000000000D+02  .851250000000D+02  .515342894672D-08 -.233290289893D+01
     .445172190666D-05  .505316501949D-02  .617094337940D-05  .515372495079D+04
     .266400000000D+06  .484287738800D-07  .524775811202D+00 -.223517417908D-07
     .930778541177D+00  .244843750000D+03  .129416159013D+01 -.842035074141D-08
     .321799118511D-09  .100000000000D+01  .168400000000D+04  .000000000000D+00
     .240000000000D+01  .000000000000D+00 -.791624188423D-08  .450000000000D+02
     .259206000000D+06  .400000000000D+01
22 12  4 18  2  0  0.0  .143391545862D-03  .227373675443D-12  .000000000000D+00
     .590000000000D+02  .856875000000D+02  .526271921338D-08  .276624969781D+01
     .437907874584D-05  .593729689717D-02  .606290996075D-05  .515368216705D+04
     .266400000000D+06  .279396772385D-07  .581972729180D+00 -.484287738800D-07
     .928023663088D+00  .245468750000D+03 -.201439388190D+01 -.844785188694D-08
     .387516141603D-09  .100000000000D+01  .168400000000D+04  .000000000000D+00
     .240000000000D+01  .000000000000D+00 -.167638063431D-07  .590000000000D+02
     .259206000000D+06  .400000000000D+01
23 12  4 18  2  0  0.0  .213759019971D-03 -.363797880709D-11  .000000000000D+00
     .800000000000D+01 -.487187500000D+02  .472698261209D-08  .876913486418D+00
    -.249780714512D-05  .772877084091D-02  .419281423092D-05  .515364444351D+04
     .266400000000D+06  .260770320892D-07  .162958632745D+01  .143423676491D-06
     .960292265353D+00  .298093750000D+03 -.302280628029D+01 -.839499254228D-08
    -.251439044874D-09  .100000000000D+01  .168400000000D+04  .000000000000D+00
     .240000000000D+01  .000000000000D+00 -.200234353542D-07  .800000000000D+01
     .259206000000D+06  .400000000000D+01
26 12  4 18  2  0  0.0 -.317706260830D-03 -.530917532160D-10  .000000000000D+00
     .390000000000D+02 -.520000000000D+02  .432303721471D-08  .733446966827D+00
    -.280886888504D-05  .209686108865D-01  .571645796299D-05  .515365594482D+04
     .266400000000D+06 -.240281224251D-06  .170152380695D+01  .484287738800D-07
     .983396642600D+00  .285718750000D+03  .118671314209D+01 -.842927968476D-08
    -.438946855327D-09  .100000000000D+01  .168400000000D+04  .000000000000D+00
     .240000000000D+01  .000000000000D+00 -.605359673500D-08  .390000000000D+02
     .259206000000D+06  .400000000000D+01
28 12  4 18  2  0  0.0  .134600792080D-03  .409272615798D-11  .000000000000D+00
     .100000000000D+03  .476250000000D+02  .432982321166D-08  .268604142224D+01
     .233948230743D-05  .178544352530D-01  .608712434769D-05  .515370631409D+04
     .266400000000D+06  .160187482834D-06 -.252436502943D+01 -.193715095520D-06
     .978573218828D+00  .267656250000D+03 -.182821745436D+01 -.771746432051D-08
     .326442169055D-09  .100000000000D+01  .168400000000D+04  .000000000000D+00
     .340000000000D+01  .000000000000D+00 -.107102096081D-07  .100000000000D+03
     .259206000000D+06  .400000000000D+01
29 12  4 18  2  0  0.0  .304379034787D-03  .363797880709D-11  .000000000000D+00
     .260000000000D+02 -.520000000000D+02  .482270088485D-08 -.136679325206D+01
    -.274740159512D-05  .231990765315D-02  .572763383389D-05  .515359426308D+04
     .266400000000D+06 -.558793544769D-07 -.148167080773D+01 -.111758708954D-07
     .962858647910D+00  .266718750000D+03 -.116251189812D+01 -.831534636755D-08
    -.428589281035D-09  .100000000000D+01  .168400000000D+04  .000000000000D+00
     .240000000000D+01  .000000000000D+00 -.931322574615D-08  .260000000000D+02
     .259206000000D+06  .400000000000D+01
31 12  4 18  2  0  0.0  .232379883528D-03  .432009983342D-11  .000000000000D+00
     .910000000000D+02 -.369687500000D+02  .394016412365D-08 -.722369423437D+00
    -.219047069550D-05  .786117382813D-02  .115707516670D-04  .515363489342D+04
     .266400000000D+06 -.745058059692D-07  .268107880327D+01 -.726431608200D-07
     .981030476474D+00  .168062500000D+03 -.868639074007D+00 -.780353933445D-08
     .102504269714D-09  .100000000000D+01  .168400000000D+04  .000000000000D+00
     .240000000000D+01  .000000000000D+00 -.130385160446D-07  .910000000000D+02
     .259206000000D+06  .400000000000D+01
32 12  4 18  2  0  0.0 -.433927867562D-03 -.443378667114D-11  .000000000000D+00
     .440000000000D+02  .690625000000D+02  .488698927701D-08 -.122596698507D+00
     .355578958988D-05  .118149510818D-01  .541098415852D-05  .515370214081D+04
     .266400000000D+06  .894069671631D-07  .656289410871D+00 -.178813934326D-06
     .952186721965D+00  .272812500000D+03 -.590724036793D+00 -.855571352267D-08
     .298941023522D-09  .100000000000D+01  .168400000000D+04  .000000000000D+00
     .240000000000D+01  .000000000000D+00 -.279396772385D-08  .440000000000D+02
     .259206000000D+06  .400000000000D+01
13 12  4 18  1 59 44.0  .212790910155D-03 -.227373675443D-11  .000000000000D+00
     .000000000000D+00 -.571875000000D+02  .404766860164D-08  .164725850220D+01
    -.302679836750D-05  .495319778565D-02  .493787229061D-05  .515368510818D+04
     .266384000000D+06  .689178705215D-07  .170743969699D+01 -.279396772385D-07
     .985851410360D+00  .296718750000D+03  .196546937360D+01 -.797604652007D-08
    -.246081678861D-09  .100000000000D+01  .168400000000D+04  .000000000000D+00
     .240000000000D+01  .000000000000D+00 -.111758708954D-07  .000000000000D+00
     .261096000000D+06  .400000000000D+01
